id,contributor,province,city,suburb,name,address,phone
,Zhiyuan Chen,湖北省,武汉市,江岸区,武汉市中医医院,,027-82857342
,Zhiyuan Chen,湖北省,武汉市,江岸区,中部战区总医院（汉口院区）,,027-50660023
,Zhiyuan Chen,湖北省,武汉市,江岸区,长江航运总医院,,027-82451362
,Zhiyuan Chen,湖北省,武汉市,江岸区,武汉市第八医院,,027-82730201
,Zhiyuan Chen,湖北省,武汉市,江岸区,武汉市中心医院,,027-82211246
,Zhiyuan Chen,湖北省,武汉市,江岸区,武汉市汉口医院,,027-51175179
,Zhiyuan Chen,湖北省,武汉市,江岸区,武汉市儿童医院,,027-82433390
,Zhiyuan Chen,湖北省,武汉市,江岸区,武汉市第六医院,,027-82419049
,Zhiyuan Chen,湖北省,武汉市,江汉区,华中科技大学同济医学院附属协和医院,,027-85726911
,Zhiyuan Chen,湖北省,武汉市,江汉区,湖北省中西医结合医院,,027-65600873
,Zhiyuan Chen,湖北省,武汉市,江汉区,武汉市中心医院（后湖院区）,,027-82857342
,Zhiyuan Chen,湖北省,武汉市,江汉区,武汉市红十字会医院,,027-85877677
,Zhiyuan Chen,湖北省,武汉市,江汉区,武汉亚洲心脏病医院,,027-65796888
,Zhiyuan Chen,湖北省,武汉市,硚口区,华中科技大学同济医学院附属同济医院,,027-83662688
,Zhiyuan Chen,湖北省,武汉市,硚口区,湖北省第三人民医院,,027-83745741
,Zhiyuan Chen,湖北省,武汉市,硚口区,武汉市第一医院,,027-85860666
,Zhiyuan Chen,湖北省,武汉市,硚口区,武汉市第四医院,,027-83782519
,Zhiyuan Chen,湖北省,武汉市,硚口区,武汉市肺科医院,,027-83660176
,Zhiyuan Chen,湖北省,武汉市,汉阳区,武汉市第五医院,,027-84812615
,Zhiyuan Chen,湖北省,武汉市,汉阳区,武汉市汉阳医院,,027-84769966
,Zhiyuan Chen,湖北省,武汉市,汉阳区,武汉市中医医院（汉阳院区）,,027-84476928
,Zhiyuan Chen,湖北省,武汉市,汉阳区,武汉龙阳医院,,027-84677507
,Zhiyuan Chen,湖北省,武汉市,武昌区,武汉大学人民医院,,027-88041911
,Zhiyuan Chen,湖北省,武汉市,武昌区,武汉市中南医院,,027-67813022
,Zhiyuan Chen,湖北省,武汉市,武昌区,武汉科技大学附属天佑医院,,027-51228666
,Zhiyuan Chen,湖北省,武汉市,武昌区,湖北省中医院,,027-88929419?
,Zhiyuan Chen,湖北省,武汉市,武昌区,武汉市第三医院,,027-68894816
,Zhiyuan Chen,湖北省,武汉市,武昌区,武汉市武昌医院,,027-88114561
,Zhiyuan Chen,湖北省,武汉市,武昌区,武汉市第七医院,,027-87362027
,Zhiyuan Chen,湖北省,武汉市,武昌区,武警湖北省总队医院,,027-50723099
,Zhiyuan Chen,湖北省,武汉市,武昌区,解放军中部战区总医院,,027-50778888
,Zhiyuan Chen,湖北省,武汉市,青山区,华润武钢总医院,,027-86487354
,Zhiyuan Chen,湖北省,武汉市,青山区,武汉市普仁医院,,027-86861999?
,Zhiyuan Chen,湖北省,武汉市,青山区,武汉市武东医院,,027-50528362
,Zhiyuan Chen,湖北省,武汉市,青山区,武汉市第九医院,,027-68865483
,Zhiyuan Chen,湖北省,武汉市,青山区,武汉市石化医院,,027-86599505
,Zhiyuan Chen,湖北省,武汉市,洪山区,武汉市第三医院（光谷院区）,,027-65399492
,Zhiyuan Chen,湖北省,武汉市,洪山区,湖北省中医院（光谷院区）,,027-87748001
,Zhiyuan Chen,湖北省,武汉市,洪山区,湖北省妇幼保健院,,027-87169068
,Zhiyuan Chen,湖北省,武汉市,洪山区,湖北省荣军医院,,027-87800387
,Zhiyuan Chen,湖北省,武汉市,东湖高新区,华中科技大学同济医学院附属同济医院（光谷院区）,,027-63639393
,Zhiyuan Chen,湖北省,武汉市,东湖高新区,武汉大学人民医院（东院）,,027-88041911-83073
,Zhiyuan Chen,湖北省,武汉市,东湖风景区,华中科技大学同济医院附属梨园医院,,027-86779910?
,Zhiyuan Chen,湖北省,武汉市,蔡甸区,武汉市蔡甸区人民医院,,027-84905996
,Zhiyuan Chen,湖北省,武汉市,蔡甸区,武汉市蔡甸区中医医院,,027-84943945
,Zhiyuan Chen,湖北省,武汉市,蔡甸区,武汉济和医院,,027-66662066
,Zhiyuan Chen,湖北省,武汉市,蔡甸区,华中科技大学同济医学院附属同济医院（中法新城院区）,,027-69378084
,Zhiyuan Chen,湖北省,武汉市,江夏区,武汉市江夏区第一人民医院,,027-87959146
,Zhiyuan Chen,湖北省,武汉市,江夏区,武汉市江夏区中医医院,,027-87952846
,Zhiyuan Chen,湖北省,武汉市,江夏区,江夏区纸坊街社区卫生服务中心,,027-87952502
,Zhiyuan Chen,湖北省,武汉市,东西湖区,武汉市东西湖区人民医院,,027-83892010
,Zhiyuan Chen,湖北省,武汉市,东西湖区,武汉太康医院,,027-83081308
,Zhiyuan Chen,湖北省,武汉市,新洲区,武汉市新洲区人民医院,,027-86921811
,Zhiyuan Chen,湖北省,武汉市,新洲区,湖北省第三人民医院阳逻院区,,027-86961120
,Zhiyuan Chen,湖北省,武汉市,新洲区,武汉市新洲区中医医院,,027-86922482
,Zhiyuan Chen,湖北省,武汉市,黄陂区,武汉市黄陂区人民医院,,027-85931736
,Zhiyuan Chen,湖北省,武汉市,黄陂区,武汉市黄陂区中医医院,,027-85912372
,Zhiyuan Chen,湖北省,武汉市,武汉经济技术开发区,华中科技大学同济医学院附属协和医院（西院）,,027-84289562?
,Zhiyuan Chen,湖北省,武汉市,武汉经济技术开发区,武汉亚心总医院,,027-84788999
,Zhiyuan Chen,湖北省,武汉市,武汉经济技术开发区,武汉市汉南区人民医院,,027-84851406
,Zhiyuan Chen,湖北省,黄石市,城区,黄石市第二医院,,0714-6510960
,Zhiyuan Chen,湖北省,黄石市,城区,黄石市第五医院,,0714-5317323
,Zhiyuan Chen,湖北省,黄石市,城区,黄石市第四医院,,0714-5418253
,Zhiyuan Chen,湖北省,黄石市,城区,黄石爱康医院,,0714-6221378
,Zhiyuan Chen,湖北省,黄石市,城区,黄石市妇幼保健院,,0714-6350865
,Zhiyuan Chen,湖北省,黄石市,城区,黄石有色医院,,0714-5392271
,Zhiyuan Chen,湖北省,黄石市,城区,黄石普仁医院,,0714-6538398
,Zhiyuan Chen,湖北省,黄石市,城区,华新医院,,0714-3806519
,Zhiyuan Chen,湖北省,黄石市,城区,大冶铁矿医院,,0714-3810722
,Zhiyuan Chen,湖北省,黄石市,大冶市,大冶市中医医院,,0714-8712263
,Zhiyuan Chen,湖北省,黄石市,阳新县,阳新县中医医院,,0714-7323523
,Zhiyuan Chen,湖北省,十堰市,茅箭区,十堰市太和医院,,0719-8801332
,Zhiyuan Chen,湖北省,十堰市,茅箭区,,,? ?
,Zhiyuan Chen,湖北省,十堰市,茅箭区,十堰市人民医院,,0719-8637828
,Zhiyuan Chen,湖北省,十堰市,茅箭区,十堰市中医医院,,0719-8788248
,Zhiyuan Chen,湖北省,十堰市,茅箭区,十堰市妇幼保健院,,0719-8125999
,Zhiyuan Chen,湖北省,十堰市,茅箭区,国药东风茅箭医院,,0719-8209095/8236123
,Zhiyuan Chen,湖北省,十堰市,茅箭区,茅箭区人民医院,,0719-8797463
,Zhiyuan Chen,湖北省,十堰市,张湾区,国药东风总医院,,0719-8272530
,Zhiyuan Chen,湖北省,十堰市,张湾区,十堰市中西医结合医院,,0719-8615107
,Zhiyuan Chen,湖北省,十堰市,张湾区,十堰市西苑医院,,0719-8581600
,Zhiyuan Chen,湖北省,十堰市,张湾区,国药东风花果医院,,0719-8235285
,Zhiyuan Chen,湖北省,十堰市,十堰经济技术开发区,十堰经济开发区人民医院,,0719-8317966
,Zhiyuan Chen,湖北省,十堰市,武当山经济特区,太和医院武当山院区,,0719-5666722
,Zhiyuan Chen,湖北省,十堰市,丹江口市,丹江口市第一医院,,0719—5229621
,Zhiyuan Chen,湖北省,十堰市,丹江口市,丹江口市中医医院,,0719-5524381
,Zhiyuan Chen,湖北省,十堰市,丹江口市,丹江口市妇幼保健院,,0719-5259619
,Zhiyuan Chen,湖北省,十堰市,丹江口市,国药汉江医院,,0719-5375154
,Zhiyuan Chen,湖北省,十堰市,丹江口市,十堰市铁路医院,,0719-5717863
,Zhiyuan Chen,湖北省,十堰市,郧阳区,郧阳区人民医院,,0719-7100203
,Zhiyuan Chen,湖北省,十堰市,郧阳区,郧阳区中医医院,,0719-7229019
,Zhiyuan Chen,湖北省,十堰市,郧阳区,郧阳区妇幼保健院,,0719-7228120
,Zhiyuan Chen,湖北省,十堰市,郧阳区,,,? ?
,Zhiyuan Chen,湖北省,十堰市,郧西县,郧西县人民医院,,0719-6206160
,Zhiyuan Chen,湖北省,十堰市,郧西县,郧西县中医医院,,0719-6235120
,Zhiyuan Chen,湖北省,十堰市,郧西县,郧西县妇幼保健院,,0719-6223120
,Zhiyuan Chen,湖北省,十堰市,竹山县,竹山县人民医院,,0719-4222430
,Zhiyuan Chen,湖北省,十堰市,竹山县,竹山县中医医院,,0719-4106120
,Zhiyuan Chen,湖北省,十堰市,竹山县,竹山县妇幼保健院,,0719-4216551
,Zhiyuan Chen,湖北省,十堰市,竹溪县,竹溪县人民医院,,0719-2730049
,Zhiyuan Chen,湖北省,十堰市,竹溪县,竹溪县中医院,,0719-2731261
,Zhiyuan Chen,湖北省,十堰市,竹溪县,竹溪县妇幼保健院,,0719-2726415
,Zhiyuan Chen,湖北省,十堰市,房县,房县人民医院,,0719-3248578
,Zhiyuan Chen,湖北省,十堰市,房县,房县中医医院,,0719-3243120
,Zhiyuan Chen,湖北省,十堰市,房县,房县妇幼保健院,,0719-3224484
,Zhiyuan Chen,湖北省,十堰市,宜昌市中心城区,宜昌市中心人民医院,,0717-6485586
,Zhiyuan Chen,湖北省,十堰市,宜昌市中心城区,宜昌市第一人民医院,,0717-6222800
,Zhiyuan Chen,湖北省,十堰市,宜昌市中心城区,宜昌市第二人民医院,,0717-6740254
,Zhiyuan Chen,湖北省,十堰市,宜昌市中心城区,三峡大学附属仁和医院,,0717-6551228
,Zhiyuan Chen,湖北省,十堰市,宜昌市中心城区,国药葛洲坝中心医院,,0717-6728011
,Zhiyuan Chen,湖北省,十堰市,宜昌市中心城区,宜昌市第三人民医院,,0717-6487475
,Zhiyuan Chen,湖北省,十堰市,点军区,宜昌市中心人民医院江南院区,,0717-6671015
,Zhiyuan Chen,湖北省,十堰市,猇亭区,宜昌市第五人民医院,,0717-6598986
,Zhiyuan Chen,湖北省,十堰市,夷陵区,宜昌市夷陵医院,,0717-7827932
,Zhiyuan Chen,湖北省,十堰市,宜都市,宜都市第一人民医院,,0717-4843103
,Zhiyuan Chen,湖北省,十堰市,宜都市,宜都市第二人民医院,,0717-4665299
,Zhiyuan Chen,湖北省,十堰市,枝江市,枝江市人民医院,,0717-4505409
,Zhiyuan Chen,湖北省,十堰市,当阳市,当阳市人民医院,,0717-3232735
,Zhiyuan Chen,湖北省,十堰市,秭归县,秭归县人民医院,,0717-2880329
,Zhiyuan Chen,湖北省,十堰市,兴山县,兴山县人民医院,,0717-2192193
,Zhiyuan Chen,湖北省,十堰市,远安县,远安县人民医院,,0717-3811359
,Zhiyuan Chen,湖北省,十堰市,长阳县,长阳县人民医院,,0717-3522766
,Zhiyuan Chen,湖北省,十堰市,五峰县,五峰县人民医院,,0717-5756060
,Zhiyuan Chen,湖北省,十堰市,五峰县,五峰县第二人民医院,,0717-5822931
,Zhiyuan Chen,湖北省,襄阳市,襄城区,襄阳市中心医院,,0710-3511150
,Zhiyuan Chen,湖北省,襄阳市,襄城区,襄阳执业技术学院附属医院,,7103443849
,Zhiyuan Chen,湖北省,襄阳市,襄城区,航空工业襄阳医院,,0710-3394260
,Zhiyuan Chen,湖北省,襄阳市,襄城区,襄阳华健医院,,0710-3513117
,Zhiyuan Chen,湖北省,襄阳市,襄城区,襄城区欧庙镇中心卫生院,,0710-3272532
,Zhiyuan Chen,湖北省,襄阳市,襄城区,襄城区新集卫生院,,0710-3517051
,Zhiyuan Chen,湖北省,襄阳市,襄城区,襄城区尹集乡卫生院,,0710-3602734
,Zhiyuan Chen,湖北省,襄阳市,襄城区,襄城区法龙卫生院,,7103505010
,Zhiyuan Chen,湖北省,襄阳市,襄城区,襄城区卧龙镇中心卫生院,,0710-3807725
,Zhiyuan Chen,湖北省,襄阳市,樊城区,襄阳五洲医院,,0710-3807780
,Zhiyuan Chen,湖北省,襄阳市,樊城区,襄阳市第五人民医院,,0710-2210168
,Zhiyuan Chen,湖北省,襄阳市,樊城区,襄阳市第一人民医院,,0710-3420098
,Zhiyuan Chen,湖北省,襄阳市,樊城区,襄阳市中医医院,,0710-3456699
,Zhiyuan Chen,湖北省,襄阳市,樊城区,襄阳市妇幼保健院,,0710-3513117
,Zhiyuan Chen,湖北省,襄阳市,樊城区,襄阳市传染病医院,,0710-3709598
,Zhiyuan Chen,湖北省,襄阳市,樊城区,襄阳市结核病防治院,,0710-3420402
,Zhiyuan Chen,湖北省,襄阳市,高新区,襄阳市中西医结合医院,,0710-3392860
,Zhiyuan Chen,湖北省,襄阳市,东津新区,襄阳东津新区东津镇中心卫生院,,18727153298
,Zhiyuan Chen,湖北省,襄阳市,东津新区,襄阳东津新区东津镇王河卫生院,,0710-2987908
,Zhiyuan Chen,湖北省,襄阳市,枣阳市,枣阳市第一人民医院,,0710-622245
,Zhiyuan Chen,湖北省,襄阳市,枣阳市,枣阳市中医院,,0710-6311349
,Zhiyuan Chen,湖北省,襄阳市,枣阳市,枣阳市妇幼保健院,,0710-3466120-8061
,Zhiyuan Chen,湖北省,襄阳市,枣阳市,枣阳市第二人民医院,,0710-6226583
,Zhiyuan Chen,湖北省,襄阳市,枣阳市,枣阳市第三人民医院,,0710-6322815
,Zhiyuan Chen,湖北省,襄阳市,枣阳市,枣阳市泰康医院,,0710-6194752
,Zhiyuan Chen,湖北省,襄阳市,枣阳市,枣阳市南城卫生院,,0710-6811332
,Zhiyuan Chen,湖北省,襄阳市,枣阳市,枣阳市鹿头镇中心卫生院,,0710-6611236
,Zhiyuan Chen,湖北省,襄阳市,枣阳市,枣阳市鹿头镇吉河卫生院,,0710-6241600
,Zhiyuan Chen,湖北省,襄阳市,枣阳市,枣阳市新市镇中心卫生院,,0710-6328113
,Zhiyuan Chen,湖北省,襄阳市,枣阳市,枣阳市新市镇钱岗卫生院,,7106194752
,Zhiyuan Chen,湖北省,襄阳市,枣阳市,枣阳市太平镇中心卫生院,,0710-6888120
,Zhiyuan Chen,湖北省,襄阳市,枣阳市,枣阳市太平镇姚岗卫生院,,7106611236
,Zhiyuan Chen,湖北省,襄阳市,枣阳市,枣阳市杨垱镇中心卫生院,,0710-6545268
,Zhiyuan Chen,湖北省,襄阳市,枣阳市,枣阳市杨垱镇徐寨卫生院,,0710-6631323
,Zhiyuan Chen,湖北省,襄阳市,枣阳市,枣阳市七方镇中心卫生院,,0710-6681123
,Zhiyuan Chen,湖北省,襄阳市,枣阳市,枣阳市七方镇罗岗卫生院,,0710-6194866
,Zhiyuan Chen,湖北省,襄阳市,枣阳市,枣阳市琚湾镇中心卫生院,,0710-6846613
,Zhiyuan Chen,湖北省,襄阳市,枣阳市,枣阳市琚湾镇蔡阳卫生院,,0710-6545268
,Zhiyuan Chen,湖北省,襄阳市,枣阳市,枣阳市熊集镇中心卫生院,,0710-6799120
,Zhiyuan Chen,湖北省,襄阳市,枣阳市,枣阳市熊集镇耿集卫生院,,0710-6881909
,Zhiyuan Chen,湖北省,襄阳市,枣阳市,枣阳市吴店镇中心卫生院,,0710-6726339
,Zhiyuan Chen,湖北省,襄阳市,枣阳市,枣阳市平林镇卫生院,,0710-6846613
,Zhiyuan Chen,湖北省,襄阳市,枣阳市,枣阳市王城镇卫生院,,0710-6162311
,Zhiyuan Chen,湖北省,襄阳市,枣阳市,枣阳市兴隆镇中心卫生院,,0710-6799120
,Zhiyuan Chen,湖北省,襄阳市,枣阳市,枣阳市刘升镇卫生院,,0710-7184120
,Zhiyuan Chen,湖北省,襄阳市,枣阳市,枣阳随阳农场卫生院,,0710-6659068
,Zhiyuan Chen,湖北省,襄阳市,枣阳市,枣阳市吴店镇清潭卫生院,,0710-6726339
,Zhiyuan Chen,湖北省,襄阳市,枣阳市,枣阳市车河农场卫生院,,0710-6753074
,Zhiyuan Chen,湖北省,襄阳市,枣阳市,枣阳泰兴医院,,0710-6161810
,Zhiyuan Chen,湖北省,襄阳市,枣阳市,枣阳骨科医院,,0710-6694142
,Zhiyuan Chen,湖北省,襄阳市,枣阳市,枣阳爱尔眼科医院,,0710-6221558
,Zhiyuan Chen,湖北省,襄阳市,枣阳市,枣阳慈惠疼痛医院,,18972228288
,Zhiyuan Chen,湖北省,襄阳市,枣阳市,枣阳经济开发区医院,,0710-6753074
,Zhiyuan Chen,湖北省,襄阳市,枣阳市,枣阳北关医院,,0710-6821111
,Zhiyuan Chen,湖北省,襄阳市,枣阳市,枣阳立康医院,,0710-6329830
,Zhiyuan Chen,湖北省,襄阳市,枣阳市,枣阳民生医院,,0710-6224120
,Zhiyuan Chen,湖北省,襄阳市,枣阳市,枣阳厚德康复医院,,0710-6666120
,Zhiyuan Chen,湖北省,襄阳市,宜城市,宜城市人民医院,,0710-6219713
,Zhiyuan Chen,湖北省,襄阳市,宜城市,宜城市中医医院,,0710-6821111
,Zhiyuan Chen,湖北省,襄阳市,宜城市,宜城市妇幼保健院,,0710-6667515
,Zhiyuan Chen,湖北省,襄阳市,宜城市,宜城市南营街道办事处卫生院,,0710-624120
,Zhiyuan Chen,湖北省,襄阳市,宜城市,宜城市雷河镇卫生院,,13635801000
,Zhiyuan Chen,湖北省,襄阳市,宜城市,宜城市孔湾镇卫生院,,0710-4656597
,Zhiyuan Chen,湖北省,襄阳市,宜城市,宜城市华光卫生院,,0710-4630440
,Zhiyuan Chen,湖北省,襄阳市,宜城市,宜城市刘猴镇中心卫生院,,0710-4612405
,Zhiyuan Chen,湖北省,襄阳市,宜城市,宜城市流水镇卫生院,,0710-4888120
,Zhiyuan Chen,湖北省,襄阳市,宜城市,宜城市王集镇中心卫生院,,0710-4855487
,Zhiyuan Chen,湖北省,襄阳市,宜城市,宜城市小河镇中心卫生院,,0710-4656597
,Zhiyuan Chen,湖北省,襄阳市,宜城市,宜城市鄢城街道办事处卫生院,,0710-4630451
,Zhiyuan Chen,湖北省,襄阳市,宜城市,宜城市郑集镇中心卫生院,,0710-4612405
,Zhiyuan Chen,湖北省,襄阳市,宜城市,宜城市板桥镇中心卫生院,,0710-4784567
,Zhiyuan Chen,湖北省,襄阳市,南漳县,南漳县人民医院,,0710-5231476
,Zhiyuan Chen,湖北省,襄阳市,南漳县,南漳县中医医院,,0710-4323666
,Zhiyuan Chen,湖北省,襄阳市,南漳县,南漳县第二人民医院,,0710-4282372
,Zhiyuan Chen,湖北省,襄阳市,南漳县,南漳县长坪镇卫生院,,0710-5631037
,Zhiyuan Chen,湖北省,襄阳市,南漳县,南漳县肖堰镇中心卫生院,,0710-5483562
,Zhiyuan Chen,湖北省,襄阳市,南漳县,南漳县巡检镇中心卫生院,,0710-5431537
,Zhiyuan Chen,湖北省,襄阳市,南漳县,南漳县清河管理区卫生院,,0710-5237831
,Zhiyuan Chen,湖北省,襄阳市,南漳县,南漳县武安镇刘集卫生院,,0710-5374398
,Zhiyuan Chen,湖北省,襄阳市,南漳县,南漳县薛坪镇中心卫生院,,0710-5611037
,Zhiyuan Chen,湖北省,襄阳市,保康县,保康县人民医院,,0710-5812456
,Zhiyuan Chen,湖北省,襄阳市,保康县,保康县中医医院,,0710-5813280
,Zhiyuan Chen,湖北省,襄阳市,保康县,保康县妇幼保健院,,0710-5311198
,Zhiyuan Chen,湖北省,襄阳市,谷城县,谷城县人民医院,,0710-7232158
,Zhiyuan Chen,湖北省,襄阳市,谷城县,谷城县中医院,,0710-7233508
,Zhiyuan Chen,湖北省,襄阳市,谷城县,谷城县妇幼保健院,,0710-7233049
,Zhiyuan Chen,湖北省,襄阳市,谷城县,谷城县第二人民医院,,0710-7616368
,Zhiyuan Chen,湖北省,襄阳市,谷城县,谷城县盛康中心卫生院,,0710-7811105
,Zhiyuan Chen,湖北省,襄阳市,谷城县,谷城县冷集中心卫生院,,0710-7512777
,Zhiyuan Chen,湖北省,襄阳市,谷城县,谷城县庙滩中心卫生院,,0710-7861102
,Zhiyuan Chen,湖北省,襄阳市,老河口市,老河口市第一医院,,0710-7523120
,Zhiyuan Chen,湖北省,襄阳市,老河口市,老河口市中医医院,,0710-7616370
,Zhiyuan Chen,湖北省,襄阳市,老河口市,老河口市妇幼保健院,,0710-7811105
,Zhiyuan Chen,湖北省,襄阳市,老河口市,老河口市第一医院江山分院,,0710-7511067
,Zhiyuan Chen,湖北省,襄阳市,老河口市,老河口市第二医院,,15897980197
,Zhiyuan Chen,湖北省,襄阳市,老河口市,老河口市薛集中心卫生院,,0710-8671050
,Zhiyuan Chen,湖北省,襄阳市,老河口市,老河口市仙人渡中心卫生院,,0710-8309101
,Zhiyuan Chen,湖北省,襄阳市,老河口市,老河口市张集中心卫生院,,0710-8711120
,Zhiyuan Chen,湖北省,襄阳市,老河口市,老河口市洪山嘴卫生院,,0710-8512539
,Zhiyuan Chen,湖北省,襄阳市,老河口市,老河口市竹林桥卫生院,,0710-8222616
,Zhiyuan Chen,湖北省,襄阳市,老河口市,老河口市李楼卫生院,,0710-8252995
,Zhiyuan Chen,湖北省,襄阳市,老河口市,老河口市红十字会医院,,0710-8771335
,Zhiyuan Chen,湖北省,襄阳市,老河口市,老河口市孟楼中心卫生院,,0710-8601202
,Zhiyuan Chen,湖北省,襄阳市,老河口市,老河口市光化社区卫生服务中心,,0710-8361763
,Zhiyuan Chen,湖北省,襄阳市,老河口市,老河口市小东门社区卫生服务中心,,0710-8235880
,Zhiyuan Chen,湖北省,襄阳市,老河口市,老河口市袁冲卫生院,,0710-8252995
,Zhiyuan Chen,湖北省,襄阳市,襄州区,襄州区人民医院,,2552058
,Zhiyuan Chen,湖北省,襄阳市,襄州区,襄州区惠民医院,,15997299638
,Zhiyuan Chen,湖北省,鄂州市,鄂城区,鄂州市中心医院,,0711-3257534
,Zhiyuan Chen,湖北省,鄂州市,鄂城区,鄂州市中医医院,,0711-3867916
,Zhiyuan Chen,湖北省,鄂州市,鄂城区,鄂州市第三医院,,17707116586
,Zhiyuan Chen,湖北省,鄂州市,鄂城区,鄂州市妇幼保健院,,0711-5032263
,Zhiyuan Chen,湖北省,鄂州市,鄂城区,鄂钢医院,,027-53083120
,Zhiyuan Chen,湖北省,鄂州市,鄂城区,鄂州二医院,,13995810866
,Zhiyuan Chen,湖北省,鄂州市,鄂城区,古楼街道飞鹅社区服务中心,,18696251969
,Zhiyuan Chen,湖北省,鄂州市,鄂城区,古楼街道怡亭铭社区卫生服务中心,,13972964299
,Zhiyuan Chen,湖北省,鄂州市,鄂城区,凤凰街道社区卫生服务中心,,15826991111
,Zhiyuan Chen,湖北省,鄂州市,鄂城区,西山街道社区卫生服务中心,,13871811966
,Zhiyuan Chen,湖北省,鄂州市,鄂城区,鄂城区花湖镇卫生院,,18771916352
,Zhiyuan Chen,湖北省,鄂州市,鄂城区,鄂城区碧石镇卫生院,,13451003977
,Zhiyuan Chen,湖北省,鄂州市,鄂城区,鄂城区泽林镇卫生院,,13886336893
,Zhiyuan Chen,湖北省,鄂州市,鄂城区,鄂城区杜山镇卫生院,,13476455411
,Zhiyuan Chen,湖北省,鄂州市,鄂城区,鄂城区杨叶镇卫生院,,13995808660
,Zhiyuan Chen,湖北省,鄂州市,鄂城区,鄂城区沙窝乡卫生院,,15172703880
,Zhiyuan Chen,湖北省,鄂州市,鄂城区,鄂城区新庙镇卫生院,,13387553789
,Zhiyuan Chen,湖北省,鄂州市,鄂城区,鄂城区汀祖镇中心卫生院,,13995817590
,Zhiyuan Chen,湖北省,鄂州市,鄂城区,鄂城区长港镇中心卫生院,,13908683978
,Zhiyuan Chen,湖北省,鄂州市,鄂城区,鄂城区燕矶镇中心卫生院,,15871504742
,Zhiyuan Chen,湖北省,鄂州市,华容区,华容区人民医院,,13871834843
,Zhiyuan Chen,湖北省,鄂州市,华容区,华容区华容中心卫生院,,13986407878
,Zhiyuan Chen,湖北省,鄂州市,华容区,华容区段店卫生院,,15972303366
,Zhiyuan Chen,湖北省,鄂州市,华容区,华容区泥矶卫生院,,0711-3751259
,Zhiyuan Chen,湖北省,鄂州市,华容区,华容区临江卫生院,,13886309373
,Zhiyuan Chen,湖北省,鄂州市,华容区,华容区胡林卫生院,,13995839168
,Zhiyuan Chen,湖北省,鄂州市,华容区,华容区蒲团卫生院,,13986420373
,Zhiyuan Chen,湖北省,鄂州市,华容区,华容区庙岭卫生院,,13971995639
,Zhiyuan Chen,湖北省,鄂州市,梁子湖区,梁子湖区涂家垴镇卫生院,,13545403656
,Zhiyuan Chen,湖北省,鄂州市,梁子湖区,梁子湖区涂家垴镇公友卫生院,,13545401736
,Zhiyuan Chen,湖北省,鄂州市,梁子湖区,梁子湖区太和镇中心卫生院,,13986401956
,Zhiyuan Chen,湖北省,鄂州市,梁子湖区,梁子湖区沼山镇卫生院,,13886326270
,Zhiyuan Chen,湖北省,鄂州市,梁子湖区,梁子湖区梁子镇卫生院,,13886346269
,Zhiyuan Chen,湖北省,鄂州市,梁子湖区,梁子湖区东沟镇卫生院,,13995813572
,Zhiyuan Chen,湖北省,鄂州市,梁子湖区,梁子湖区梁子岛卫生院,,13995811258
,Zhiyuan Chen,湖北省,鄂州市,葛店开发区,葛店开发区葛店卫生院,,15972312372
,Zhiyuan Chen,湖北省,鄂州市,葛店开发区,葛店开发区大湾社区卫生服务中心,,13971991925
,Zhiyuan Chen,湖北省,荆门市,东宝区,荆门市第二人民医院,,0724-6905076
,Zhiyuan Chen,湖北省,荆门市,东宝区,荆门市康复医院,,13451199066
,Zhiyuan Chen,湖北省,荆门市,掇刀区,荆门市第一人民医院,,0724-2305703
,Zhiyuan Chen,湖北省,荆门市,掇刀区,荆门市中医医院,,0724-2278004
,Zhiyuan Chen,湖北省,荆门市,掇刀区,掇刀人民医院,,0724-6045995
,Zhiyuan Chen,湖北省,荆门市,漳河新区,荆门市第一人民医院,,0724-2305703
,Zhiyuan Chen,湖北省,荆门市,京山市,京山市人民医院,,0724-7337254
,Zhiyuan Chen,湖北省,荆门市,京山市,京山市中医院,,0724-7426999
,Zhiyuan Chen,湖北省,荆门市,京山市,京山仁和医院,,13797977121
,Zhiyuan Chen,湖北省,荆门市,钟祥市,钟祥市人民医院,,0724-4223634
,Zhiyuan Chen,湖北省,荆门市,钟祥市,钟祥市中医医院,,0724-4230120
,Zhiyuan Chen,湖北省,荆门市,沙洋县,沙洋县人民医院,,0724-8513719
,Zhiyuan Chen,湖北省,荆门市,沙洋县,沙洋县中医医院,,0724-8598116
,Zhiyuan Chen,湖北省,荆门市,屈家岭管理区,荆门五三医院,,13774031428
,Zhiyuan Chen,湖北省,孝感市,市直,孝感市中心医院,,0712-2348719
,Zhiyuan Chen,湖北省,孝感市,市直,孝感市妇幼保健院?,,15871269906
,Zhiyuan Chen,湖北省,孝感市,市直,孝感市康复医院,,0712-2366875
,Zhiyuan Chen,湖北省,孝感市,市直,湖北航天医院,,0712-2357017
,Zhiyuan Chen,湖北省,孝感市,市直,孝感市结核病防治所,,0712-2323036转8683
,Zhiyuan Chen,湖北省,孝感市,市直,孝感市惠民医院,,0712-2832621
,Zhiyuan Chen,湖北省,孝感市,孝南区,孝感市第一人民医院,,0712-2349170
,Zhiyuan Chen,湖北省,孝感市,孝南区,孝感市中医医院,,0712-2822767
,Zhiyuan Chen,湖北省,孝感市,孝南区,孝南区妇幼保健院,,0712-2822258
,Zhiyuan Chen,湖北省,孝感市,汉川市,汉川市人民医院,,0712-8377114
,Zhiyuan Chen,湖北省,孝感市,汉川市,汉川市中医医院,,0712-8292441
,Zhiyuan Chen,湖北省,孝感市,汉川市,汉川市第二人民医院,,0712-8511230
,Zhiyuan Chen,湖北省,孝感市,汉川市,汉川市妇幼保健院,,0713-8282909
,Zhiyuan Chen,湖北省,孝感市,汉川市,汉川市血防医院,,0712-8282248
,Zhiyuan Chen,湖北省,孝感市,应城市,应城市人民医院,,0712-3245217
,Zhiyuan Chen,湖北省,孝感市,应城市,应城市中医医院,,0712-3228636
,Zhiyuan Chen,湖北省,孝感市,应城市,应城市妇幼保健院,,0712-3227705
,Zhiyuan Chen,湖北省,孝感市,云梦县,云梦县人民医院,,0712-4338404
,Zhiyuan Chen,湖北省,孝感市,云梦县,云梦县中医医院,,0712-4339287
,Zhiyuan Chen,湖北省,孝感市,云梦县,云梦县妇幼保健计划生育服务中心,,0712-4225732
,Zhiyuan Chen,湖北省,孝感市,安陆市,安陆市人民医院,,0712-5275661
,Zhiyuan Chen,湖北省,孝感市,安陆市,安陆市中医院,,0712-5277936
,Zhiyuan Chen,湖北省,孝感市,安陆市,安陆市妇幼保健院,,0712-5252279
,Zhiyuan Chen,湖北省,孝感市,安陆市,安陆市第二人民医院,,0712-5227280
,Zhiyuan Chen,湖北省,孝感市,大悟县,大悟县人民医院,,0712-7585228
,Zhiyuan Chen,湖北省,孝感市,大悟县,大悟县中医医院,,0712-7585719
,Zhiyuan Chen,湖北省,孝感市,大悟县,大悟县妇幼保健院,,0712-7222840
,Zhiyuan Chen,湖北省,孝感市,大悟县,大悟县第三人民医院,,0712-7211221
,Zhiyuan Chen,湖北省,孝感市,大悟县,大悟县第二人民医院,,0712-7513585
,Zhiyuan Chen,湖北省,孝感市,孝昌县,孝昌县第一人民医院,,0712-4768555
,Zhiyuan Chen,湖北省,孝感市,孝昌县,孝昌县妇幼保健院,,0712-4761189
,Zhiyuan Chen,湖北省,荆州市,荆州区,荆州市中心医院,,0716-8436294
,Zhiyuan Chen,湖北省,荆州市,荆州区,荆州市妇幼保健院,,0716-8434362
,Zhiyuan Chen,湖北省,荆州市,荆州区,荆州市胸科医院,,0716-8186120
,Zhiyuan Chen,湖北省,荆州市,荆州区,荆州区第五人民医院,,0712-8496421
,Zhiyuan Chen,湖北省,荆州市,荆州区,荆州区中医医院,,0716-8114471
,Zhiyuan Chen,湖北省,荆州市,荆州区,荆州区皮肤病防治院,,0716-8425985
,Zhiyuan Chen,湖北省,荆州市,荆州区,荆州区妇幼保健院,,0712-8434362
,Zhiyuan Chen,湖北省,荆州市,沙市区,荆州市第一人民医院,,0716-8119295
,Zhiyuan Chen,湖北省,荆州市,沙市区,荆州市中医医院,,0716-8114471
,Zhiyuan Chen,湖北省,荆州市,沙市区,荆州市第二人民医院,,0716-8221602
,Zhiyuan Chen,湖北省,荆州市,沙市区,荆州市第三人民医院,,0716-8310489
,Zhiyuan Chen,湖北省,荆州市,沙市区,沙市区妇幼保健院,,0716-8819020
,Zhiyuan Chen,湖北省,荆州市,江陵县,江陵县人民医院,,0716-4899008
,Zhiyuan Chen,湖北省,荆州市,江陵县,湖北省江北监狱医院,,0712-4786100
,Zhiyuan Chen,湖北省,荆州市,松滋市,松滋市人民医院,,0716-6228594
,Zhiyuan Chen,湖北省,荆州市,松滋市,松滋市第二人民医院,,0716-6514393
,Zhiyuan Chen,湖北省,荆州市,松滋市,松滋市第三人民医院,,0716-6669333
,Zhiyuan Chen,湖北省,荆州市,松滋市,松滋市中医医院,,0716-6229449
,Zhiyuan Chen,湖北省,荆州市,松滋市,松滋市妇幼保健院,,0716-6223737
,Zhiyuan Chen,湖北省,荆州市,公安县,公安县人民医院,,13872332628
,Zhiyuan Chen,湖北省,荆州市,公安县,公安县中医医院,,0712-5231542
,Zhiyuan Chen,湖北省,荆州市,公安县,公安县二人民医院,,0712-5821833
,Zhiyuan Chen,湖北省,荆州市,公安县,公安县妇幼保健院,,0712-5240911；0712-5225861
,Zhiyuan Chen,湖北省,荆州市,公安县,公安县血吸虫病专科医院,,0716-5233120
,Zhiyuan Chen,湖北省,荆州市,石首市,石首市妇幼保健院,,0716-7297604
,Zhiyuan Chen,湖北省,荆州市,石首市,石首市中医医院,,0716-7817199
,Zhiyuan Chen,湖北省,荆州市,石首市,石首市人民医院,,0716-7891267
,Zhiyuan Chen,湖北省,荆州市,监利县,监利县人民医院,,0716-3184001
,Zhiyuan Chen,湖北省,荆州市,监利县,监利县第二人民医院,,0716-3578768-8331
,Zhiyuan Chen,湖北省,荆州市,监利县,监利县三医院,,18972399120
,Zhiyuan Chen,湖北省,荆州市,监利县,监利县中医医院,,0712-3188027
,Zhiyuan Chen,湖北省,荆州市,监利县,监利县妇幼保健院,,0716-3279478
,Zhiyuan Chen,湖北省,荆州市,监利县,监利县大垸医院,,18171981567
,Zhiyuan Chen,湖北省,荆州市,监利县,监利县皮肤病防治院,,0716-3267696
,Zhiyuan Chen,湖北省,荆州市,洪湖市,洪湖市人民医院,,0716-2426527
,Zhiyuan Chen,湖北省,荆州市,洪湖市,洪湖市中医医院,,0716-2218120
,Zhiyuan Chen,湖北省,荆州市,洪湖市,洪湖市第二人民医院,,0716-2822394
,Zhiyuan Chen,湖北省,荆州市,洪湖市,洪湖市第三人民医院,,0716-2422214
,Zhiyuan Chen,湖北省,荆州市,洪湖市,洪湖市妇幼保健院,,0716-2215318
,Zhiyuan Chen,湖北省,黄冈市,黄州区,黄冈市中心医院,,0713-8625077
,Zhiyuan Chen,湖北省,黄冈市,黄州区,黄冈市妇幼保健院,,0713-8380000
,Zhiyuan Chen,湖北省,黄冈市,黄州区,黄冈市中医医院,,0713-8662521
,Zhiyuan Chen,湖北省,黄冈市,黄州区,黄州区人民医院,,0713-8385155
,Zhiyuan Chen,湖北省,黄冈市,黄州区,黄州区妇幼保健院,,0713-8380000
,Zhiyuan Chen,湖北省,黄冈市,团风县,团风县人民医院?,,0713-6159665
,Zhiyuan Chen,湖北省,黄冈市,红安县,红安县人民医院,,0713-5242320
,Zhiyuan Chen,湖北省,黄冈市,红安县,红安县中医医院,,0713-5241608
,Zhiyuan Chen,湖北省,黄冈市,红安县,红安县妇幼保健院,,0713-5241230/5241348
,Zhiyuan Chen,湖北省,黄冈市,麻城市,麻城市人民医院,,0713-2912202/2932202
,Zhiyuan Chen,湖北省,黄冈市,麻城市,麻城市第二人民医院,,0713-2912470
,Zhiyuan Chen,湖北省,黄冈市,麻城市,麻城市中医医院,,0713-2912406/2924130
,Zhiyuan Chen,湖北省,黄冈市,罗田县,罗田县人民医院,,0713-5052049
,Zhiyuan Chen,湖北省,黄冈市,罗田县,罗田县第二人民医院,,0713-5752452
,Zhiyuan Chen,湖北省,黄冈市,罗田县,罗田县万密斋医院,,0713-5053192
,Zhiyuan Chen,湖北省,黄冈市,英山县,英山县人民医院,,0713-7021571
,Zhiyuan Chen,湖北省,黄冈市,英山县,英山县中医医院,,0713-7013249
,Zhiyuan Chen,湖北省,黄冈市,英山县,英山县妇幼保健院,,0713-7010448
,Zhiyuan Chen,湖北省,黄冈市,浠水县,浠水县人民医院,,0713-4233614
,Zhiyuan Chen,湖北省,黄冈市,浠水县,浠水县妇幼保健院,,0713-4233274
,Zhiyuan Chen,湖北省,黄冈市,浠水县,浠水县中医医院,,0713-4243060
,Zhiyuan Chen,湖北省,黄冈市,蕲春县,蕲春李时珍医院,,0713-7504319
,Zhiyuan Chen,湖北省,黄冈市,蕲春县,蕲春县人民医院,,0713-7222232
,Zhiyuan Chen,湖北省,黄冈市,蕲春县,蕲春县妇幼保健院,,0713-7222876
,Zhiyuan Chen,湖北省,黄冈市,武穴市,武穴市红十字会医院,,07136683747??
,Zhiyuan Chen,湖北省,黄冈市,武穴市,武穴市第一人民医院,,0713-6759159
,Zhiyuan Chen,湖北省,黄冈市,武穴市,武穴市第二人民医院,,0713-6732308
,Zhiyuan Chen,湖北省,黄冈市,武穴市,武穴市中医医院,,0713-6222469/6222149
,Zhiyuan Chen,湖北省,黄冈市,黄梅县,黄梅县人民医院,,0713-3321130
,Zhiyuan Chen,湖北省,黄冈市,黄梅县,黄梅县中医医院,,0713-3324431
,Zhiyuan Chen,湖北省,黄冈市,黄梅县,黄梅县妇幼保健院,,0713-3321208
,Zhiyuan Chen,湖北省,咸宁市,市区,咸宁市妇幼保健院,,0715-8183779
,Zhiyuan Chen,湖北省,咸宁市,市区,湖北科技学院附二医院,,0715-8102624
,Zhiyuan Chen,湖北省,咸宁市,市区,咸宁市中心医院,,0715-8896104
,Zhiyuan Chen,湖北省,咸宁市,市区,咸宁市中医医院,,0715-8252845
,Zhiyuan Chen,湖北省,咸宁市,咸安区,咸安区温泉社区卫生服务中心,,0715-8271310
,Zhiyuan Chen,湖北省,咸宁市,咸安区,咸安区向阳湖镇卫生院,,0715-8510553
,Zhiyuan Chen,湖北省,咸宁市,咸安区,咸安区永安社区卫生服务中心,,0715-8323955
,Zhiyuan Chen,湖北省,咸宁市,咸安区,咸安区双溪中心卫生院,,0715--8068026
,Zhiyuan Chen,湖北省,咸宁市,咸安区,咸安区中医医院,,0715-8726280
,Zhiyuan Chen,湖北省,咸宁市,咸安区,咸安区马桥镇卫生院,,(0715)8812526
,Zhiyuan Chen,湖北省,咸宁市,咸安区,咸宁市第一人民医院,,0715－8319315
,Zhiyuan Chen,湖北省,咸宁市,咸安区,咸安区妇幼保健院,,0715-8376521
,Zhiyuan Chen,湖北省,咸宁市,咸安区,咸安区大幕乡卫生院,,0715-8682900
,Zhiyuan Chen,湖北省,咸宁市,咸安区,咸安区大幕乡卫生院,,0715-8682210
,Zhiyuan Chen,湖北省,咸宁市,咸安区,咸安区浮山社区卫生服务中心,,0715-8068823
,Zhiyuan Chen,湖北省,咸宁市,咸安区,咸安汀泗中心卫生院,,0715-8611320
,Zhiyuan Chen,湖北省,咸宁市,咸安区,咸安区桂花镇卫生院,,7153893151
,Zhiyuan Chen,湖北省,咸宁市,咸安区,咸安区高桥镇中心卫生院,,0715-8781529
,Zhiyuan Chen,湖北省,咸宁市,咸安区,贺胜桥镇卫生院,,0715-8872173
,Zhiyuan Chen,湖北省,咸宁市,咸安区,咸安区官埠桥镇卫生院,,0715-8711743
,Zhiyuan Chen,湖北省,咸宁市,咸安区,咸安区横沟桥镇中心卫生院,,0715-8711386
,Zhiyuan Chen,湖北省,咸宁市,嘉鱼县,嘉鱼县人民医院,,7156322252
,Zhiyuan Chen,湖北省,咸宁市,嘉鱼县,嘉鱼县簰洲湾镇卫生院,,7156526346
,Zhiyuan Chen,湖北省,咸宁市,嘉鱼县,嘉鱼县潘家湾镇卫生院,,7156616299
,Zhiyuan Chen,湖北省,咸宁市,嘉鱼县,嘉鱼县高铁岭镇卫生院,,7156812163
,Zhiyuan Chen,湖北省,咸宁市,赤壁市,赤壁市人民医院,,0715-5369270
,Zhiyuan Chen,湖北省,咸宁市,赤壁市,赤壁市蒲纺医院,,0715-5517070
,Zhiyuan Chen,湖北省,咸宁市,赤壁市,赤壁市中医医院,,0715-5251228
,Zhiyuan Chen,湖北省,咸宁市,赤壁市,赤壁市妇幼保健院,,0715-5239002
,Zhiyuan Chen,湖北省,咸宁市,通城县,通城县人民医院,,0715-4324844
,Zhiyuan Chen,湖北省,咸宁市,通城县,通城县妇幼保健院,,0715-4331112
,Zhiyuan Chen,湖北省,咸宁市,通城县,通城县中医医院,,0715-4322928
,Zhiyuan Chen,湖北省,咸宁市,通城县,通城同仁医院,,0715-4688160
,Zhiyuan Chen,湖北省,咸宁市,通山县,通山县人民医院,,0715-2885310
,Zhiyuan Chen,湖北省,咸宁市,通山县,通山县妇幼保健院,,0715-2881589
,Zhiyuan Chen,湖北省,咸宁市,通山县,通山康泰医院,,0715-2359790
,Zhiyuan Chen,湖北省,咸宁市,通山县,通山县中医医院,,0715-2396120
,Zhiyuan Chen,湖北省,咸宁市,崇阳县,崇阳县人民医院,,0715-3333190
,Zhiyuan Chen,湖北省,咸宁市,崇阳县,崇阳县中医院,,0715-3066111
,Zhiyuan Chen,湖北省,咸宁市,崇阳县,崇阳县妇幼保健院,,0715-3395816
,Zhiyuan Chen,湖北省,咸宁市,崇阳县,崇阳县青山镇蔡墩卫生所,,0715-3600230
,Zhiyuan Chen,湖北省,咸宁市,崇阳县,崇阳县石城镇卫生院,,13518062738
,Zhiyuan Chen,湖北省,咸宁市,崇阳县,崇阳县沙坪镇卫生院,,0715-3067402
,Zhiyuan Chen,湖北省,咸宁市,崇阳县,崇阳县天城镇卫生院,,0715-3384999
,Zhiyuan Chen,湖北省,咸宁市,崇阳县,崇阳县青山镇卫生院,,0715-3683663
,Zhiyuan Chen,湖北省,咸宁市,崇阳县,崇阳县高枧乡卫生院,,0715-3650052
,Zhiyuan Chen,湖北省,咸宁市,崇阳县,崇阳县桂花泉镇卫生院,,0715-3069770
,Zhiyuan Chen,湖北省,咸宁市,崇阳县,崇阳县路口镇中心卫生院,,0715-3533886
,Zhiyuan Chen,湖北省,咸宁市,崇阳县,崇阳县第二人民医院,,0715-3585158
,Zhiyuan Chen,湖北省,随州市,市区,随州市中心医院(文帝院区),,0722-3252076
,Zhiyuan Chen,湖北省,随州市,市区,随州市中医医院,,0722-3591768
,Zhiyuan Chen,湖北省,随州市,市区,随州市妇幼保健院,,0722-3314748
,Zhiyuan Chen,湖北省,随州市,高新区,随州市高新区医院,,0722-451884
,Zhiyuan Chen,湖北省,随州市,随县,随县人民医院,,0722-3561365
,Zhiyuan Chen,湖北省,随州市,随县,随县洪山医院,,0722-4811223
,Zhiyuan Chen,湖北省,随州市,随县,随县中医医院,,0722-8715189
,Zhiyuan Chen,湖北省,随州市,广水市,广水市第一人民医院,,0722-6384505
,Zhiyuan Chen,湖北省,随州市,广水市,广水市第二人民医院,,0722-6886920
,Zhiyuan Chen,湖北省,随州市,广水市,广水市中医医院,,0722-6269786
,Zhiyuan Chen,湖北省,随州市,广水市,广水市妇幼保健院,,0722-6303037
,Zhiyuan Chen,湖北省,随州市,曾都区,随州市曾都医院,,0722-3222398
,Zhiyuan Chen,湖北省,恩施土家族苗族自治州,恩施市,恩施州中心医院,,0718-8295446
,Zhiyuan Chen,湖北省,恩施土家族苗族自治州,恩施市,湖北民族大学附属民大医院,,0718-8301120
,Zhiyuan Chen,湖北省,恩施土家族苗族自治州,恩施市,恩施市中心医院,,0718-8233580?
,Zhiyuan Chen,湖北省,恩施土家族苗族自治州,恩施市,恩施华龙总医院,,0718-8023072
,Zhiyuan Chen,湖北省,恩施土家族苗族自治州,利川市,利川市人民医院,,0718-7282450
,Zhiyuan Chen,湖北省,恩施土家族苗族自治州,利川市,利川市民族中医院,,0718-7219986
,Zhiyuan Chen,湖北省,恩施土家族苗族自治州,利川市,利川东方和谐医院,,0718-7233888
,Zhiyuan Chen,湖北省,恩施土家族苗族自治州,建始县,建始县人民医院?,,0718-3222480
,Zhiyuan Chen,湖北省,恩施土家族苗族自治州,建始县,建始县中医医院,,0718-3222110
,Zhiyuan Chen,湖北省,恩施土家族苗族自治州,巴东县,巴东县人民医院,,0718-4260921
,Zhiyuan Chen,湖北省,恩施土家族苗族自治州,巴东县,巴东县中医医院,,0718-4334710
,Zhiyuan Chen,湖北省,恩施土家族苗族自治州,宣恩县,宣恩县人民医院,,0718-5801197
,Zhiyuan Chen,湖北省,恩施土家族苗族自治州,宣恩县,宣恩县民族医院,,0718-5832584
,Zhiyuan Chen,湖北省,恩施土家族苗族自治州,咸丰县,咸丰县人民医院,,0718-6822913
,Zhiyuan Chen,湖北省,恩施土家族苗族自治州,咸丰县,咸丰县中医院,,0718-6822082?
,Zhiyuan Chen,湖北省,恩施土家族苗族自治州,来凤县,来凤县中心医院,,0718-6282341
,Zhiyuan Chen,湖北省,恩施土家族苗族自治州,鹤峰县,鹤峰县中心医院,,0718-5282450
,Zhiyuan Chen,湖北省,仙桃市,仙桃市,仙桃市第一人民医院,,0728-3220732
,Zhiyuan Chen,湖北省,仙桃市,仙桃市,仙桃市中医医院,,0728-3330487
,Zhiyuan Chen,湖北省,仙桃市,仙桃市,仙桃市第三人民医院,,0728-3264129
,Zhiyuan Chen,湖北省,仙桃市,仙桃市,仙桃市脑血管病医院,,0728-3232120
,Zhiyuan Chen,湖北省,仙桃市,仙桃市,仙桃江汉医院,,0728-8823205
,Zhiyuan Chen,湖北省,仙桃市,仙桃市,仙桃职业学院附属医院,,0728-8870120-8488
,Zhiyuan Chen,湖北省,仙桃市,仙桃市,仙桃阳光医院,,0728-3233999
,Zhiyuan Chen,湖北省,仙桃市,仙桃市,仙桃博爱医院,,0728-3262999
,Zhiyuan Chen,湖北省,仙桃市,仙桃市,仙桃沔州康复医院,,0728-3221010
,Zhiyuan Chen,湖北省,仙桃市,仙桃市,仙桃爱尔眼科医院,,0728-8209226
,Zhiyuan Chen,湖北省,仙桃市,仙桃市,仙桃市郑场镇卫生院,,0728-2892133
,Zhiyuan Chen,湖北省,仙桃市,仙桃市,仙桃市毛嘴中心卫生院,,0728-2882451
,Zhiyuan Chen,湖北省,仙桃市,仙桃市,仙桃市剅河镇卫生院,,0728-2852107
,Zhiyuan Chen,湖北省,仙桃市,仙桃市,仙桃市三伏潭镇卫生院,,0728-2833120
,Zhiyuan Chen,湖北省,仙桃市,仙桃市,仙桃市胡场镇卫生院,,0728-8207563
,Zhiyuan Chen,湖北省,仙桃市,仙桃市,仙桃市陈场镇卫生院,,0728-2782484
,Zhiyuan Chen,湖北省,仙桃市,仙桃市,仙桃市通海口中心卫生院,,0728-2766120
,Zhiyuan Chen,湖北省,仙桃市,仙桃市,仙桃市沔城回族镇卫生院,,0728-2752155
,Zhiyuan Chen,湖北省,仙桃市,仙桃市,仙桃市郭河镇卫生院,,0728-2742187
,Zhiyuan Chen,湖北省,仙桃市,仙桃市,仙桃市张沟中心卫生院,,0728-2721139
,Zhiyuan Chen,湖北省,仙桃市,仙桃市,仙桃市长埫口中心卫生院,,0728-2511898
,Zhiyuan Chen,湖北省,仙桃市,仙桃市,仙桃市第二人民医院,,0728-2613120
,Zhiyuan Chen,湖北省,仙桃市,仙桃市,仙桃市西流河中心卫生院,,0728-2593289
,Zhiyuan Chen,湖北省,仙桃市,仙桃市,仙桃市杨林尾镇卫生院,,0728-2691120
,Zhiyuan Chen,湖北省,仙桃市,仙桃市,仙桃市沙湖中心卫生院,,0728-2651718
,Zhiyuan Chen,湖北省,潜江市,潜江市,潜江市中心医院,,0728-6245612
,Zhiyuan Chen,湖北省,潜江市,潜江市,江汉油田总医院,,0728-6503319
,Zhiyuan Chen,湖北省,潜江市,潜江市,潜江市中医院,,0728-6245503
,Zhiyuan Chen,湖北省,潜江市,潜江市,潜江市妇幼保健院,,0728-6242707?
,Zhiyuan Chen,湖北省,潜江市,潜江市,潜江市二医院,,0728-6292120
,Zhiyuan Chen,湖北省,潜江市,潜江市,王场镇中心卫生院,,0728-6702706
,Zhiyuan Chen,湖北省,潜江市,潜江市,潜江市张金镇中心卫生院,,0728-6641421
,Zhiyuan Chen,湖北省,潜江市,潜江市,白鹭湖管理区卫生院,,0728-6831108
,Zhiyuan Chen,湖北省,潜江市,潜江市,运粮湖管理区卫生院,,0728-6681182
,Zhiyuan Chen,湖北省,潜江市,潜江市,潜江市竹根滩镇卫生院,,0728-6300531
,Zhiyuan Chen,湖北省,潜江市,潜江市,潜江市积玉口镇卫生院,,0728-6711039
,Zhiyuan Chen,湖北省,潜江市,潜江市,泽口卫生院,,0728—6201607
,Zhiyuan Chen,湖北省,潜江市,潜江市,熊口管理区卫生院,,18163085406
,Zhiyuan Chen,湖北省,潜江市,潜江市,老新镇卫生院,,0728-6841261
,Zhiyuan Chen,湖北省,潜江市,潜江市,浩口镇卫生院,,0728-6721281
,Zhiyuan Chen,湖北省,潜江市,潜江市,潜江市高石碑镇卫生院,,0728-6791295
,Zhiyuan Chen,湖北省,潜江市,潜江市,周矶办事处卫生院,,0728-6351670
,Zhiyuan Chen,湖北省,潜江市,潜江市,渔洋镇卫生院,,0728-6891253
,Zhiyuan Chen,湖北省,潜江市,潜江市,潜江市高石碑镇卫生院,,0728-6791295
,Zhiyuan Chen,湖北省,潜江市,潜江市,园林卫生院,,0728-6243426
,Zhiyuan Chen,湖北省,潜江市,潜江市,潜江市周矶管理区卫生院,,15826924813
,Zhiyuan Chen,湖北省,潜江市,潜江市,广华社区卫生服务中心,,0728-6511580
,Zhiyuan Chen,湖北省,潜江市,潜江市,周矶办事处卫生院,,0728-6351670
,Zhiyuan Chen,湖北省,潜江市,潜江市,后湖管理区卫生院,,0728-6744722
,Zhiyuan Chen,湖北省,潜江市,潜江市,熊口镇卫生院,,0728-6631392
,Zhiyuan Chen,湖北省,潜江市,潜江市,潜江市皮肤病防治院,,0728-6243776
,Zhiyuan Chen,湖北省,天门市,天门市,天门市妇幼保健院,,0728-5222213
,Zhiyuan Chen,湖北省,天门市,天门市,干驿镇卫生院,,0728-4547120
,Zhiyuan Chen,湖北省,天门市,天门市,马湾镇卫生院,,0728-4563120
,Zhiyuan Chen,湖北省,天门市,天门市,皂市镇卫生院,,0728-4811324
,Zhiyuan Chen,湖北省,天门市,天门市,石家河镇卫生院,,0728-4893120
,Zhiyuan Chen,湖北省,天门市,天门市,天门市中医医院,,0728-5222603
,Zhiyuan Chen,湖北省,天门市,天门市,黄潭镇卫生院,,0728-4971269
,Zhiyuan Chen,湖北省,天门市,天门市,张港镇卫生院,,0728-4644299
,Zhiyuan Chen,湖北省,天门市,天门市,净潭乡卫生院,,0728-4531120
,Zhiyuan Chen,湖北省,天门市,天门市,胡市镇卫生院,,0728-4840628
,Zhiyuan Chen,湖北省,天门市,天门市,彭市镇卫生院,,0728-4615945
,Zhiyuan Chen,湖北省,天门市,天门市,小板镇卫生院,,0728-4579159
,Zhiyuan Chen,湖北省,天门市,天门市,九真镇卫生院,,0728-4863109
,Zhiyuan Chen,湖北省,天门市,天门市,多祥镇卫生院,,0728-4581010
,Zhiyuan Chen,湖北省,天门市,天门市,渔薪镇卫生院,,0728-4782335
,Zhiyuan Chen,湖北省,天门市,天门市,多宝镇卫生院,,0728-4681318
,Zhiyuan Chen,湖北省,天门市,天门市,蒋场镇卫生院,,0728-4663120
,Zhiyuan Chen,湖北省,天门市,天门市,佛子山镇卫生院,,0728-4801162
,Zhiyuan Chen,湖北省,天门市,天门市,麻洋镇卫生院,,0728-4628269
,Zhiyuan Chen,湖北省,天门市,天门市,汪场镇卫生院,,17362890813
,Zhiyuan Chen,湖北省,天门市,天门市,拖市镇卫生院,,0728-4761007
,Zhiyuan Chen,湖北省,天门市,天门市,横林镇卫生院,,0728-4631210
,Zhiyuan Chen,湖北省,天门市,天门市,卢市镇卫生院,,0728-4513120
,Zhiyuan Chen,湖北省,天门市,天门市,竟陵街道社区卫生服务中心,,0728-5337610
,Zhiyuan Chen,湖北省,天门市,天门市,天门市第一人民医院,,0728-5237400
,Zhiyuan Chen,湖北省,天门市,天门市,岳口镇卫生院,,0728-4711241
,Zhiyuan Chen,湖北省,天门市,天门市,侯口社区卫生服务中心,,13972934113
,Zhiyuan Chen,湖北省,天门市,天门市,天门市蒋湖医院,,0728-4692120
,Zhiyuan Chen,湖北省,神农架林区,神农架林区,神农架林区人民医院,,18971930223
,Zhiyuan Chen,湖北省,神农架林区,神农架林区,神农架林区中医医院,,0719-3452325
,Zhiyuan Chen,湖北省,神农架林区,神农架林区,神农架林区妇幼保健院,,0719-3332486
,Zhiyuan Chen,湖北省,神农架林区,神农架林区,神农架林区阳日中心卫生院,,0719-3422120
,Zhiyuan Chen,湖北省,神农架林区,神农架林区,神农架林区下谷中心卫生院,,0719-3472120
,Zhiyuan Chen,湖北省,神农架林区,神农架林区,神农架林区红坪中心卫生院,,0719-3372114
,Zhiyuan Chen,湖北省,神农架林区,神农架林区,神农架林区宋洛卫生院,,0719-3362105
,Zhiyuan Chen,湖北省,神农架林区,神农架林区,神农架林区新华卫生院,,0719-3432120
,Zhiyuan Chen,湖北省,神农架林区,神农架林区,神农架林区大九湖卫生院,,0719-3472269
